{
  "norad_id": 45081,
  "name": "STARLINK-1151",
  "history": [
    {
      "epoch": "2026-03-28T14:00:14.774112Z",
      "apogee_km": 367.84007230615134,
      "perigee_km": 362.519595324271,
      "latitude_deg": -1.5071403066824006e-05,
      "longitude_deg": 110.79076601344984,
      "height_km": 363.94203318427395,
      "semi_major_axis_km": 6743.316833815211,
      "eccentricity": 0.0003945,
      "inclination_deg": 53.0522,
      "raan_deg": 146.8542,
      "arg_perigee_deg": 36.5451,
      "mean_anomaly_deg": 323.5833,
      "mean_motion_rev_day": 15.67806331
    }
  ]
}